OBJECT_NAME,OBJECT_ID,EPOCH,MEAN_MOTION,ECCENTRICITY,INCLINATION,RA_OF_ASC_NODE,ARG_OF_PERICENTER,MEAN_ANOMALY,EPHEMERIS_TYPE,CLASSIFICATION_TYPE,NORAD_CAT_ID,ELEMENT_SET_NO,REV_AT_EPOCH,BSTAR,MEAN_MOTION_DOT,MEAN_MOTION_DDOT
ZHONGXING-2C,2015-063A,2026-06-08T19:00:31.049856,1.00268146,.00077083,0.2508,90.2727,95.8860,99.5530,0,U,41021,999,3889,0,-.307E-5,0
GSAT-15,2015-065A,2026-06-09T08:38:55.419360,1.00270540,.00039233,0.0513,110.7137,328.9417,41.3237,0,U,41028,999,3872,0,-.241E-5,0
BADR-7 (ARABSAT-6B),2015-065B,2026-06-09T20:18:15.557760,1.00270997,.00034209,0.0353,234.4661,324.3751,29.9254,0,U,41029,999,3869,0,.162E-5,0
LAOSAT 1,2015-067A,2026-06-09T19:04:50.105568,1.00273469,.00024472,0.0385,183.5971,211.1655,278.1205,0,U,41034,999,3878,0,-.325E-5,0
TELSTAR 12V,2015-068A,2026-06-09T09:50:41.254080,1.00271046,.0002305,0.0235,65.7170,10.9367,313.8139,0,U,41036,999,3854,0,-.102E-5,0
ELEKTRO-L 2,2015-074A,2026-06-09T06:22:25.775904,1.00271831,.0001007,6.6730,70.6207,284.5070,343.6389,0,U,41105,999,3842,0,-.102E-5,0
COSMOS 2513,2015-075A,2026-06-09T22:16:23.212416,1.00273245,.00034526,0.0766,99.3905,332.1726,241.0903,0,U,41121,999,3847,0,-.121E-5,0
EXPRESS-AMU1,2015-082A,2026-06-09T20:21:07.782336,1.00270147,.00026758,0.0213,353.1139,88.8512,157.6131,0,U,41191,999,3819,0,0,0
GAOFEN-4,2015-083A,2026-06-08T14:20:42.251136,1.00273550,.00041656,0.3341,83.8441,111.8448,22.1741,0,U,41194,999,3844,0,-.319E-5,0
BELINTERSAT-1,2016-001A,2026-06-09T15:47:01.106880,1.00269907,.00019728,0.0462,121.9989,283.3725,140.9159,0,U,41238,999,3816,0,.124E-5,0
IRNSS-1E,2016-003A,2026-06-09T15:34:40.861056,1.00268584,.00179263,33.2186,59.8594,179.3195,4.1979,0,U,41241,999,3800,0,-.299E-5,0
EUTELSAT 9B,2016-005A,2026-06-09T16:48:11.675232,1.00272660,.00017843,0.0614,72.6377,333.6851,112.7887,0,U,41310,999,3804,0,.79E-6,0
SES-9,2016-013A,2026-06-09T01:52:23.570976,1.00273663,.000199,0.0108,336.9667,107.7708,309.1219,0,U,41380,999,3735,0,-.329E-5,0
EUTELSAT 65 WEST A,2016-014A,2026-06-09T09:36:20.130336,1.00272213,.00022482,0.0503,9.2450,59.6000,267.8320,0,U,41382,999,3744,0,-.259E-5,0
IRNSS-1F,2016-015A,2026-06-09T13:29:30.389856,1.00278831,.00165855,5.3299,96.9533,186.7155,209.2481,0,U,41384,999,3759,0,.175E-5,0
BEIDOU-2 IGSO-6,2016-021A,2026-06-08T23:55:01.304832,1.00261117,.00571186,60.2137,38.1225,231.5364,79.8340,0,U,41434,999,3739,0,-.154E-5,0
IRNSS-1G,2016-027A,2026-06-09T19:05:05.082144,1.00269826,.00075074,5.1800,97.6441,353.1311,223.2366,0,U,41469,999,3710,0,-.317E-5,0
JCSAT-2B,2016-028A,2026-06-09T17:29:31.419168,1.00269565,.00007782,0.0181,343.7786,117.9993,212.7061,0,U,41471,999,3705,0,-.148E-5,0
THAICOM 8,2016-031A,2026-06-09T20:33:17.534016,1.00270284,.00036582,0.0686,47.6102,10.0802,227.3921,0,U,41552,999,3664,0,-.104E-5,0
INTELSAT 31 (IS-31),2016-035A,2026-06-09T11:01:24.568032,1.00270432,.00009208,0.0197,262.6352,341.1411,84.3698,0,U,41581,999,3660,0,-.134E-5,0
BEIDOU-2 G7,2016-037A,2026-06-09T22:24:59.886144,1.00268200,.0007175,1.7009,69.2572,3.0833,272.7380,0,U,41586,999,681,0,-.336E-5,0
ABS-2A (MONGOLSAT-1),2016-038A,2026-06-09T20:32:10.142016,1.00267595,.00012581,0.0180,325.8688,57.0366,258.1105,0,U,41588,999,3663,0,0,0
EUTELSAT 117 WEST B,2016-038B,2026-06-09T00:48:06.000192,1.00276750,.00003453,0.0422,159.6913,138.3370,214.4010,0,U,41589,999,3658,0,.4E-7,0
BRISAT,2016-039A,2026-06-09T19:11:11.996160,1.00268735,.00020083,0.0235,318.9309,119.6648,257.8642,0,U,41591,999,3653,0,0,0
ECHOSTAR 18,2016-039B,2026-06-09T01:04:05.071296,1.00271708,.00013931,0.0178,340.8727,102.1330,129.0878,0,U,41592,999,3654,0,-.265E-5,0
MUOS-5,2016-041A,2026-06-09T16:15:26.678304,1.00271212,.01970055,2.2206,301.4960,260.8774,194.3023,0,U,41622,999,3701,0,-.96E-6,0
TIANTONG-1 1,2016-048A,2026-06-09T18:57:05.848128,1.00270306,.00059924,3.8343,43.3468,43.3621,197.1491,0,U,41725,999,3619,0,-.302E-5,0
JCSAT-16,2016-050A,2026-06-09T05:27:58.431168,1.00270108,.0000921,0.0177,356.2594,90.5519,36.7275,0,U,41729,999,3599,0,-.234E-5,0
USA 270,2016-052A,2026-06-08T02:16:56.129376,1.00284145,.0008515,4.1755,77.3049,337.9683,59.8197,0,U,41744,999,2804,0,.95E-6,0
USA 271,2016-052B,2026-06-07T19:08:42.969984,1.00262239,.0010783,4.1460,77.3775,157.2143,71.4983,0,U,41745,999,2782,0,-.344E-5,0
INTELSAT 36 (IS-36),2016-053A,2026-06-09T20:30:25.310304,1.00270461,.0001894,0.0109,353.2567,341.8083,299.2589,0,U,41747,999,3588,0,-.7E-7,0
INSAT-3DR,2016-054A,2026-06-09T20:32:02.653728,1.00270453,.00104835,0.0863,87.4311,186.7861,6.0052,0,U,41752,999,3574,0,-.59E-6,0
