ZHONGXING-2C            
1 41021U 15063A   26159.79202604 -.00000307  00000+0  00000+0 0  9995
2 41021   0.2508  90.2727 0007708  95.8860  99.5530  1.00268146 38897
GSAT-15                 
1 41028U 15065A   26160.36036365 -.00000241  00000+0  00000+0 0  9995
2 41028   0.0513 110.7137 0003923 328.9417  41.3237  1.00270540 38726
BADR-7 (ARABSAT-6B)     
1 41029U 15065B   26160.84601340  .00000162  00000+0  00000+0 0  9991
2 41029   0.0353 234.4661 0003420 324.3751  29.9254  1.00270997 38691
LAOSAT 1                
1 41034U 15067A   26160.79502437 -.00000325  00000+0  00000+0 0  9992
2 41034   0.0385 183.5971 0002447 211.1655 278.1205  1.00273469 38785
TELSTAR 12V             
1 41036U 15068A   26160.41019970 -.00000102  00000+0  00000+0 0  9992
2 41036   0.0235  65.7170 0002305  10.9367 313.8139  1.00271046 38547
ELEKTRO-L 2             
1 41105U 15074A   26160.26557611 -.00000102  00000+0  00000+0 0  9998
2 41105   6.6730  70.6207 0001007 284.5070 343.6389  1.00271831 38427
COSMOS 2513             
1 41121U 15075A   26160.92804644 -.00000121  00000+0  00000+0 0  9992
2 41121   0.0766  99.3905 0003452 332.1726 241.0903  1.00273245 38478
EXPRESS-AMU1            
1 41191U 15082A   26160.84800674  .00000000  00000+0  00000+0 0  9992
2 41191   0.0213 353.1139 0002675  88.8512 157.6131  1.00270147 38198
GAOFEN-4                
1 41194U 15083A   26159.59771124 -.00000319  00000+0  00000+0 0  9997
2 41194   0.3341  83.8441 0004165 111.8448  22.1741  1.00273550 38442
BELINTERSAT-1           
1 41238U 16001A   26160.65765170  .00000124  00000+0  00000+0 0  9993
2 41238   0.0462 121.9989 0001972 283.3725 140.9159  1.00269907 38161
IRNSS-1E                
1 41241U 16003A   26160.64908404 -.00000299  00000+0  00000+0 0  9991
2 41241  33.2186  59.8594 0017926 179.3195   4.1979  1.00268584 38002
EUTELSAT 9B             
1 41310U 16005A   26160.70013513  .00000079  00000+0  00000+0 0  9990
2 41310   0.0614  72.6377 0001784 333.6851 112.7887  1.00272660 38046
SES-9                   
1 41380U 16013A   26160.07805059 -.00000329  00000+0  00000+0 0  9999
2 41380   0.0108 336.9667 0001990 107.7708 309.1219  1.00273663 37357
EUTELSAT 65 WEST A      
1 41382U 16014A   26160.40023299 -.00000259  00000+0  00000+0 0  9999
2 41382   0.0503   9.2450 0002248  59.6000 267.8320  1.00272213 37448
IRNSS-1F                
1 41384U 16015A   26160.56215729  .00000175  00000+0  00000+0 0  9996
2 41384   5.3299  96.9533 0016585 186.7155 209.2481  1.00278831 37593
BEIDOU-2 IGSO-6         
1 41434U 16021A   26159.99654288 -.00000154  00000+0  00000+0 0  9999
2 41434  60.2137  38.1225 0057118 231.5364  79.8340  1.00261117 37396
IRNSS-1G                
1 41469U 16027A   26160.79519771 -.00000317  00000+0  00000+0 0  9991
2 41469   5.1800  97.6441 0007507 353.1311 223.2366  1.00269826 37106
JCSAT-2B                
1 41471U 16028A   26160.72883587 -.00000148  00000+0  00000+0 0  9999
2 41471   0.0181 343.7786 0000778 117.9993 212.7061  1.00269565 37056
THAICOM 8               
1 41552U 16031A   26160.85645294 -.00000104  00000+0  00000+0 0  9990
2 41552   0.0686  47.6102 0003658  10.0802 227.3921  1.00270284 36641
INTELSAT 31 (IS-31)     
1 41581U 16035A   26160.45931213 -.00000134  00000+0  00000+0 0  9994
2 41581   0.0197 262.6352 0000920 341.1411  84.3698  1.00270432 36602
BEIDOU-2 G7             
1 41586U 16037A   26160.93402646 -.00000336  00000+0  00000+0 0  9991
2 41586   1.7009  69.2572 0007175   3.0833 272.7380  1.00268200  6814
ABS-2A (MONGOLSAT-1)    
1 41588U 16038A   26160.85567294  .00000000  00000+0  00000+0 0  9993
2 41588   0.0180 325.8688 0001258  57.0366 258.1105  1.00267595 36635
EUTELSAT 117 WEST B     
1 41589U 16038B   26160.03340278  .00000004  00000+0  00000+0 0  9999
2 41589   0.0422 159.6913 0000345 138.3370 214.4010  1.00276750 36580
BRISAT                  
1 41591U 16039A   26160.79944440  .00000000  00000+0  00000+0 0  9993
2 41591   0.0235 318.9309 0002008 119.6648 257.8642  1.00268735 36533
ECHOSTAR 18             
1 41592U 16039B   26160.04450314 -.00000265  00000+0  00000+0 0  9998
2 41592   0.0178 340.8727 0001393 102.1330 129.0878  1.00271708 36545
MUOS-5                  
1 41622U 16041A   26160.67739211 -.00000096  00000+0  00000+0 0  9992
2 41622   2.2206 301.4960 0197005 260.8774 194.3023  1.00271212 37017
TIANTONG-1 1            
1 41725U 16048A   26160.78965102 -.00000302  00000+0  00000+0 0  9995
2 41725   3.8343  43.3468 0005992  43.3621 197.1491  1.00270306 36194
JCSAT-16                
1 41729U 16050A   26160.22775962 -.00000234  00000+0  00000+0 0  9998
2 41729   0.0177 356.2594 0000921  90.5519  36.7275  1.00270108 35990
USA 270                 
1 41744U 16052A   26159.09509409  .00000095  00000+0  00000+0 0  9995
2 41744   4.1755  77.3049 0008515 337.9683  59.8197  1.00284145 28040
USA 271                 
1 41745U 16052B   26158.79771956 -.00000344  00000+0  00000+0 0  9998
2 41745   4.1460  77.3775 0010783 157.2143  71.4983  1.00262239 27822
INTELSAT 36 (IS-36)     
1 41747U 16053A   26160.85445961 -.00000007  00000+0  00000+0 0  9991
2 41747   0.0109 353.2567 0001894 341.8083 299.2589  1.00270461 35884
INSAT-3DR               
1 41752U 16054A   26160.85558627 -.00000059  00000+0  00000+0 0  9999
2 41752   0.0863  87.4311 0010483 186.7861   6.0052  1.00270453 35749
